STARLINK-11473 [DTC]    
1 62060U 24217D   26068.26602113  .00192074  00000+0  15542-2 0  9994
2 62060  53.1574  73.5928 0001268  81.2542 278.8619 15.69703182 75100
ISS OBJECT XU           
1 66908U 98067XU  26068.19895314  .00161175  00000+0  13351-2 0  9996
2 66908  51.6248  68.1144 0004893  76.6698 283.4844 15.69191892 15108
